INTELSAT 902 (IS-902)   
1 26900U 01039A   26188.49142751 -.00000272  00000+0  00000+0 0  9998
2 26900   6.1673  71.5349 0004415  31.4521 309.2722  1.00272462 90896
INTELSAT 904 (IS-904)   
1 27380U 02007A   26188.49524087 -.00000214  00000+0  00000+0 0  9999
2 27380   6.9674  68.9385 0005649  20.5791 342.7553  1.00272979 51979
DIRECTV 5 (TEMPO 1)     
1 27426U 02023A   26188.56249921 -.00000045  00000+0  00000+0 0  9999
2 27426   4.9265  75.0571 0003138  33.6207 269.2467  1.00271111 88321
INTELSAT 905 (IS-905)   
1 27438U 02027A   26188.60018914  .00000104  00000+0  00000+0 0  9992
2 27438   6.8014  69.5516 0003701  41.3362 253.5448  1.00272047 51568
GALAXY 3C (G-3C)        
1 27445U 02030A   26188.55643932 -.00000140  00000+0  00000+0 0  9993
2 27445   3.7826  77.7134 0001671  35.9642 277.3401  1.00271292 46696
INTELSAT 906 (IS-906)   
1 27513U 02041A   26188.22903148  .00000025  00000+0  00000+0 0  9994
2 27513   5.8521  72.6749 0004010  15.3631 343.7400  1.00271515 87222
GALAXY 13 (HORIZONS-1)  
1 27954U 03044A   26188.63427031  .00000147  00000+0  00000+0 0  9999
2 27954   1.4709  83.6034 0001751  22.8936 257.4413  1.00274550 46772
INTELSAT 10-02          
1 28358U 04022A   26188.28744913  .00000003  00000+0  00000+0 0  9998
2 28358   0.0448 260.4083 0000322  25.0168 102.3088  1.00264278 80758
DIRECTV 8               
1 28659U 05019A   26188.56520694  .00000016  00000+0  00000+0 0  9992
2 28659   0.0191  47.4828 0003149  71.6907 250.7836  1.00271847 77277
GALAXY 28 (G-28)        
1 28702U 05022A   26188.35354713 -.00000187  00000+0  00000+0 0  9999
2 28702   3.3472  78.6900 0002215  28.9129 277.8982  1.00271636 52175
GALAXY 16 (G-16)        
1 29236U 06023A   26188.55313802 -.00000111  00000+0  00000+0 0  9997
2 29236   0.0307 131.3842 0002505 339.8317 274.4276  1.00270699 73176
DIRECTV 9S              
1 29494U 06043A   26188.55270469 -.00000100  00000+0  00000+0 0  9994
2 29494   2.4700  80.6616 0005153  29.1358 273.4973  1.00271158 51581
GALAXY 17 (G-17)        
1 31307U 07016B   26188.55591138 -.00000193  00000+0  00000+0 0  9992
2 31307   3.0199  79.6469 0003715  26.5923 294.3879  1.00272193 70006
INTELSAT 11 (IS-11)     
1 32253U 07044B   26188.50869770  .00000040  00000+0  00000+0 0  9999
2 32253   3.6149  78.4263 0003823  95.8557 330.7007  0.99049489 68652
HORIZONS-2              
1 32388U 07063B   26188.55799138 -.00000240  00000+0  00000+0 0  9997
2 32388   2.6513  80.3804 0003784  13.9296 318.2991  1.00272137 68019
DIRECTV 11              
1 32729U 08013A   26188.55313802 -.00000110  00000+0  00000+0 0  9998
2 32729   0.0371 206.5477 0000171 259.3613 279.5529  1.00270995 45792
GALAXY 18 (G-18)        
1 32951U 08024A   26188.53416294  .00000040  00000+0  00000+0 0  9995
2 32951   0.0148 324.3874 0002931 152.2335 238.1842  1.00272890 46054
GALAXY 19 (G-19)        
1 33376U 08045A   26188.55357135 -.00000124  00000+0  00000+0 0  9994
2 33376   0.0579 253.8498 0002815 236.3125 257.6343  1.00271639 65103
FM-5                    
1 35493U 09034A   26187.77146750 -.00000185  00000+0  00000+0 0  9994
2 35493   0.0414 265.3083 0001165  77.7507 133.2586  1.00271114 46845
INTELSAT 14 (IS-14)     
1 36097U 09064A   26188.42126334  .00000000  00000+0  00000+0 0  9992
2 36097   0.0221  18.1154 0002284  98.3782 275.5629  1.00269047 60804
INTELSAT 15 (IS-15)     
1 36106U 09067A   26188.58965976 -.00000170  00000+0  00000+0 0  9995
2 36106   0.0178  24.9622 0002247  86.4257 111.5960  1.00271234 41431
DIRECTV 12              
1 36131U 09075A   26187.91080358 -.00000088  00000+0  00000+0 0  9998
2 36131   0.0412 201.0027 0000151 333.1848 335.8588  1.00269850 46755
INTELSAT 16 (IS-16)     
1 36397U 10006A   26187.84481654 -.00000230  00000+0  00000+0 0  9993
2 36397   0.0169 315.0873 0002475 173.1047  24.5633  1.00270016 59851
XM-5                    
1 37185U 10053A   26188.54993134 -.00000008  00000+0  00000+0 0  9993
2 37185   0.0645 268.2848 0001751 309.2857 150.7259  1.00270812 57683
INTELSAT 17 (IS-17)     
1 37238U 10065B   26188.51459105  .00000014  00000+0  00000+0 0  9993
2 37238   0.0087  75.3621 0002601  36.1644  65.1949  1.00272576 53458
INTELSAT 28 (IS-28)     
1 37392U 11016A   26187.71099740 -.00000211  00000+0  00000+0 0  9997
2 37392   1.8534  82.3902 0003752  27.7420  38.7679  1.00270512 53488
INTELSAT 18 (IS-18)     
1 37834U 11056A   26188.51452326  .00000068  00000+0  00000+0 0  9993
2 37834   0.0165 336.4413 0001839 141.1321 173.1256  1.00271536 54017
INTELSAT 22 (IS-22)     
1 38098U 12011A   26188.51580440  .00000000  00000+0  00000+0 0  9993
2 38098   0.0278  56.4651 0001795  66.5377  60.2497  1.00269440  7393
INTELSAT 19 (IS-19)     
1 38356U 12030A   26188.50747098 -.00000041  00000+0  00000+0 0  9990
2 38356   0.0114   0.4924 0003131 119.7246 153.9485  1.00271539 50659
INTELSAT 20 (IS-20)     
1 38740U 12043A   26188.44379678 -.00000009  00000+0  00000+0 0  9993
2 38740   0.0106  50.0191 0001238 129.3220 334.3244  1.00271979 50958
INTELSAT 21 (IS-21)     
1 38749U 12045A   26188.48995418 -.00000270  00000+0  00000+0 0  9994
2 38749   0.0171 341.9625 0001787 145.7856 276.0932  1.00270181 50724
